{
  "type": "FeatureCollection",
  "features": [
    {
      "type": "Feature",
      "properties": {
        "norad_id": 57400,
        "name": "TIANMU-1 08",
        "group": "weather",
        "lat": -61.95442870792892,
        "lon": -165.90236290664978,
        "alt_km": 493.07277873567,
        "timestamp": "2025-12-04T03:47:54.197826+00:00",
        "meta_object_name": "TIANMU-1 08",
        "meta_object_id": "2023-101B",
        "meta_epoch": "2025-12-03T20:27:07.627104",
        "meta_mean_motion": 15.27849669,
        "meta_eccentricity": 0.000748,
        "meta_inclination": 97.2882,
        "meta_ra_of_asc_node": 27.6991,
        "meta_arg_of_pericenter": 108.692,
        "meta_mean_anomaly": 251.5132,
        "meta_ephemeris_type": 0,
        "meta_classification_type": "U",
        "meta_norad_cat_id": 57400,
        "meta_element_set_no": 999,
        "meta_rev_at_epoch": 13179,
        "meta_bstar": 0.00042366,
        "meta_mean_motion_dot": 0.00011462,
        "meta_mean_motion_ddot": 0,
        "tle_line1": "1 57400U 23101B   25337.85217161  .00011462  00000+0  42366-3 0  9991",
        "tle_line2": "2 57400  97.2882  27.6991 0007480 108.6920 251.5132 15.27849669131790"
      },
      "geometry": {
        "type": "Point",
        "coordinates": [
          -165.90236290664978,
          -61.95442870792892
        ]
      }
    },
    {
      "type": "Feature",
      "properties": {
        "norad_id": 57401,
        "name": "TIANMU-1 09",
        "group": "weather",
        "lat": -45.104998248121866,
        "lon": 34.89219017523159,
        "alt_km": 493.0494503432583,
        "timestamp": "2025-12-04T03:47:54.197840+00:00",
        "meta_object_name": "TIANMU-1 09",
        "meta_object_id": "2023-101C",
        "meta_epoch": "2025-12-03T20:08:18.839616",
        "meta_mean_motion": 15.27872147,
        "meta_eccentricity": 0.0006743,
        "meta_inclination": 97.2839,
        "meta_ra_of_asc_node": 27.2045,
        "meta_arg_of_pericenter": 108.0827,
        "meta_mean_anomaly": 252.1148,
        "meta_ephemeris_type": 0,
        "meta_classification_type": "U",
        "meta_norad_cat_id": 57401,
        "meta_element_set_no": 999,
        "meta_rev_at_epoch": 13179,
        "meta_bstar": 0.00046719,
        "meta_mean_motion_dot": 0.00012656,
        "meta_mean_motion_ddot": 0,
        "tle_line1": "1 57401U 23101C   25337.83910694  .00012656  00000+0  46719-3 0  9993",
        "tle_line2": "2 57401  97.2839  27.2045 0006743 108.0827 252.1148 15.27872147131791"
      },
      "geometry": {
        "type": "Point",
        "coordinates": [
          34.89219017523159,
          -45.104998248121866
        ]
      }
    },
    {
      "type": "Feature",
      "properties": {
        "norad_id": 57402,
        "name": "TIANMU-1 10",
        "group": "weather",
        "lat": 52.52526109482371,
        "lon": -142.02754865643686,
        "alt_km": 471.79358969064197,
        "timestamp": "2025-12-04T03:47:54.197850+00:00",
        "meta_object_name": "TIANMU-1 10",
        "meta_object_id": "2023-101D",
        "meta_epoch": "2025-12-03T19:23:12.161760",
        "meta_mean_motion": 15.27862563,
        "meta_eccentricity": 0.0008516,
        "meta_inclination": 97.292,
        "meta_ra_of_asc_node": 28.0143,
        "meta_arg_of_pericenter": 109.2458,
        "meta_mean_anomaly": 250.9703,
        "meta_ephemeris_type": 0,
        "meta_classification_type": "U",
        "meta_norad_cat_id": 57402,
        "meta_element_set_no": 999,
        "meta_rev_at_epoch": 13178,
        "meta_bstar": 0.0004458,
        "meta_mean_motion_dot": 0.00012074,
        "meta_mean_motion_ddot": 0,
        "tle_line1": "1 57402U 23101D   25337.80777965  .00012074  00000+0  44580-3 0  9991",
        "tle_line2": "2 57402  97.2920  28.0143 0008516 109.2458 250.9703 15.27862563131787"
      },
      "geometry": {
        "type": "Point",
        "coordinates": [
          -142.02754865643686,
          52.52526109482371
        ]
      }
    },
    {
      "type": "Feature",
      "properties": {
        "norad_id": 57490,
        "name": "FENGYUN 3F",
        "group": "weather",
        "lat": 58.98107281559774,
        "lon": -118.64111864461825,
        "alt_km": 819.5746551836055,
        "timestamp": "2025-12-04T03:47:54.197860+00:00",
        "meta_object_name": "FENGYUN 3F",
        "meta_object_id": "2023-111A",
        "meta_epoch": "2025-12-03T20:28:16.095648",
        "meta_mean_motion": 14.19889715,
        "meta_eccentricity": 6.87e-05,
        "meta_inclination": 98.7095,
        "meta_ra_of_asc_node": 46.2894,
        "meta_arg_of_pericenter": 87.1082,
        "meta_mean_anomaly": 273.0173,
        "meta_ephemeris_type": 0,
        "meta_classification_type": "U",
        "meta_norad_cat_id": 57490,
        "meta_element_set_no": 999,
        "meta_rev_at_epoch": 12114,
        "meta_bstar": 9.4975e-05,
        "meta_mean_motion_dot": 1.58e-06,
        "meta_mean_motion_ddot": 0,
        "tle_line1": "1 57490U 23111A   25337.85296407  .00000158  00000+0  94975-4 0  9995",
        "tle_line2": "2 57490  98.7095  46.2894 0000687  87.1082 273.0173 14.19889715121140"
      },
      "geometry": {
        "type": "Point",
        "coordinates": [
          -118.64111864461825,
          58.98107281559774
        ]
      }
    },
    {
      "type": "Feature",
      "properties": {
        "norad_id": 58584,
        "name": "ARKTIKA-M 2",
        "group": "weather",
        "lat": 60.18851124694643,
        "lon": -66.02335070991347,
        "alt_km": 35123.63722935471,
        "timestamp": "2025-12-04T03:47:54.197872+00:00",
        "meta_object_name": "ARKTIKA-M 2",
        "meta_object_id": "2023-198A",
        "meta_epoch": "2025-12-03T08:34:19.284960",
        "meta_mean_motion": 2.00605176,
        "meta_eccentricity": 0.6864251,
        "meta_inclination": 63.2223,
        "meta_ra_of_asc_node": 175.9121,
        "meta_arg_of_pericenter": 268.1397,
        "meta_mean_anomaly": 18.842,
        "meta_ephemeris_type": 0,
        "meta_classification_type": "U",
        "meta_norad_cat_id": 58584,
        "meta_element_set_no": 999,
        "meta_rev_at_epoch": 1439,
        "meta_bstar": 0,
        "meta_mean_motion_dot": 2.24e-06,
        "meta_mean_motion_ddot": 0,
        "tle_line1": "1 58584U 23198A   25337.35716765  .00000224  00000+0  00000+0 0  9999",
        "tle_line2": "2 58584  63.2223 175.9121 6864251 268.1397  18.8420  2.00605176 14391"
      },
      "geometry": {
        "type": "Point",
        "coordinates": [
          -66.02335070991347,
          60.18851124694643
        ]
      }
    },
    {
      "type": "Feature",
      "properties": {
        "norad_id": 58645,
        "name": "TIANMU-1 11",
        "group": "weather",
        "lat": 51.91983186961639,
        "lon": -11.562580587601753,
        "alt_km": 485.48359637338126,
        "timestamp": "2025-12-04T03:47:54.197884+00:00",
        "meta_object_name": "TIANMU-1 11",
        "meta_object_id": "2023-205A",
        "meta_epoch": "2025-12-03T19:41:31.833312",
        "meta_mean_motion": 15.24424027,
        "meta_eccentricity": 0.0008807,
        "meta_inclination": 97.3609,
        "meta_ra_of_asc_node": 357.6021,
        "meta_arg_of_pericenter": 345.4678,
        "meta_mean_anomaly": 14.6305,
        "meta_ephemeris_type": 0,
        "meta_classification_type": "U",
        "meta_norad_cat_id": 58645,
        "meta_element_set_no": 999,
        "meta_rev_at_epoch": 10773,
        "meta_bstar": 0.00037586,
        "meta_mean_motion_dot": 9.161e-05,
        "meta_mean_motion_ddot": 0,
        "tle_line1": "1 58645U 23205A   25337.82050733  .00009161  00000+0  37586-3 0  9996",
        "tle_line2": "2 58645  97.3609 357.6021 0008807 345.4678  14.6305 15.24424027107736"
      },
      "geometry": {
        "type": "Point",
        "coordinates": [
          -11.562580587601753,
          51.91983186961639
        ]
      }
    },
    {
      "type": "Feature",
      "properties": {
        "norad_id": 58646,
        "name": "TIANMU-1 12",
        "group": "weather",
        "lat": -82.33469104626704,
        "lon": 103.93017680550199,
        "alt_km": 497.99343470366875,
        "timestamp": "2025-12-04T03:47:54.197897+00:00",
        "meta_object_name": "TIANMU-1 12",
        "meta_object_id": "2023-205B",
        "meta_epoch": "2025-12-03T20:19:27.780384",
        "meta_mean_motion": 15.24339051,
        "meta_eccentricity": 0.0006622,
        "meta_inclination": 97.3597,
        "meta_ra_of_asc_node": 357.4363,
        "meta_arg_of_pericenter": 331.0789,
        "meta_mean_anomaly": 29.0081,
        "meta_ephemeris_type": 0,
        "meta_classification_type": "U",
        "meta_norad_cat_id": 58646,
        "meta_element_set_no": 999,
        "meta_rev_at_epoch": 10772,
        "meta_bstar": 0.00040416,
        "meta_mean_motion_dot": 9.828e-05,
        "meta_mean_motion_ddot": 0,
        "tle_line1": "1 58646U 23205B   25337.84684931  .00009828  00000+0  40416-3 0  9998",
        "tle_line2": "2 58646  97.3597 357.4363 0006622 331.0789  29.0081 15.24339051107729"
      },
      "geometry": {
        "type": "Point",
        "coordinates": [
          103.93017680550199,
          -82.33469104626704
        ]
      }
    }
  ]
}